<?xml version="1.0" encoding="UTF-8"?>
<gpx version="1.1"
     creator="itineclair-usability-test"
     xmlns="http://www.topografix.com/GPX/1/1">
  <trk>
    <name>Boucle du lac — test débutant</name>
    <trkseg>
      <trkpt lat="46.3710" lon="6.4810"><ele>1000</ele></trkpt>
      <trkpt lat="46.3720" lon="6.4820"><ele>1035</ele></trkpt>
      <trkpt lat="46.3730" lon="6.4830"><ele>1070</ele></trkpt>
      <trkpt lat="46.3740" lon="6.4820"><ele>1040</ele></trkpt>
      <trkpt lat="46.3710" lon="6.4810"><ele>1000</ele></trkpt>
    </trkseg>
  </trk>
</gpx>
